NORAD_CAT_ID,OBJECT_NAME,OBJECT_TYPE,EPOCH,MEAN_MOTION,ECCENTRICITY,INCLINATION,RA_OF_ASC_NODE,ARG_OF_PERICENTER,MEAN_ANOMALY,BSTAR,MEAN_MOTION_DOT,MEAN_MOTION_DDOT,TLE_LINE0,TLE_LINE1,TLE_LINE2,SEMIMAJOR_AXIS,PERIOD,APOGEE,PERIGEE,DECAYED
55934.0,STARLINK-5927,PAYLOAD,2023-06-24 22:00:00,15.6072621,0.0003169,69.9992,262.3962,271.0063,296.8044,-0.012209,-0.009253,0.0,0 STARLINK-5927,1 55934U 23037W   23175.91667824 -.00925300  00000-0 -12209-1 0  9998,2 55934  69.9992 262.3962 0003169 271.0063 296.8044 15.60726210 16088,6763.695,92.265,387.704,383.417,0.0
55934.0,STARLINK-5927,PAYLOAD,2023-06-25 22:00:01,15.58758554,0.00034,69.9989,259.627,272.064,149.1907,-0.012844,-0.00904853,0.0,0 STARLINK-5927,1 55934U 23037W   23176.91668981 -.00904853  00000-0 -12844-1 0  9999,2 55934  69.9989 259.6270 0003400 272.0640 149.1907 15.58758554 16244,6769.386,92.381,393.553,388.949,0.0
55934.0,STARLINK-5927,PAYLOAD,2023-06-26 22:00:00,15.56803306,0.0003295,69.9991,256.8657,269.8963,357.629,-0.013878,-0.00907918,0.0,0 STARLINK-5927,1 55934U 23037W   23177.91667824 -.00907918  00000-0 -13878-1 0  9998,2 55934  69.9991 256.8657 0003295 269.8963 357.6290 15.56803306 16402,6775.053,92.497,399.15,394.685,0.0
55934.0,STARLINK-5927,PAYLOAD,2023-06-27 22:00:00,15.54834793,0.0003395,69.9992,254.1126,270.8958,195.9284,-0.014557,-0.00887252,0.0,0 STARLINK-5927,1 55934U 23037W   23178.91667824 -.00887252  00000-0 -14557-1 0  9992,2 55934  69.9992 254.1126 0003395 270.8958 195.9284 15.54834793 16556,6780.77,92.614,404.937,400.333,0.0
55934.0,STARLINK-5927,PAYLOAD,2023-06-28 14:00:01,15.53521617,0.0003543,69.9997,252.2817,272.9834,322.7941,-0.014869,-0.00865746,0.0,0 STARLINK-5927,1 55934U 23037W   23179.58334491 -.00865746  00000-0 -14869-1 0  9997,2 55934  69.9997 252.2817 0003543 272.9834 322.7941 15.53521617 16667,6784.591,92.693,408.859,404.052,0.0
55934.0,STARLINK-5927,PAYLOAD,2023-06-29 22:00:00,15.51209366,0.0003551,69.9995,248.6307,272.1991,212.1606,0.00012426,7.137e-05,0.0,0 STARLINK-5927,1 55934U 23037W   23180.91667824  .00007137  00000-0  12426-3 0  9994,2 55934  69.9995 248.6307 0003551 272.1991 212.1606 15.51209366 16867,6791.331,92.831,415.608,410.784,0.0
55934.0,STARLINK-5927,PAYLOAD,2023-07-01 06:00:00,15.51251729,0.0003627,70.0,244.9856,268.3906,99.6132,-0.00058759,-0.00034565,0.0,0 STARLINK-5927,1 55934U 23037W   23182.25001157 -.00034565  00000-0 -58759-3 0  9990,2 55934  70.0000 244.9856 0003627 268.3906  99.6132 15.51251729 17078,6791.207,92.828,415.535,410.609,0.0
55934.0,STARLINK-5927,PAYLOAD,2023-07-02 04:00:00,15.51239897,0.0003659,69.9997,242.4793,265.8934,179.6269,-0.00011204,-6.745e-05,0.0,0 STARLINK-5927,1 55934U 23037W   23183.16667824 -.00006745  00000-0 -11204-3 0  9993,2 55934  69.9997 242.4793 0003659 265.8934 179.6269 15.51239897 17219,6791.242,92.829,415.592,410.622,0.0
55934.0,STARLINK-5927,PAYLOAD,2023-07-03 12:07:59,15.51219936,0.000352,69.9972,238.8188,269.3579,90.7203,-6.7432e-06,-5.61e-06,0.0,0 STARLINK-5927,1 55934U 23037W   23184.50554899 -.00000561  00000-0 -67432-5 0  9995,2 55934  69.9972 238.8188 0003520 269.3579  90.7203 15.51219936 17426,6791.3,92.83,415.556,410.775,0.0
55934.0,STARLINK-5927,PAYLOAD,2023-07-03 21:25:07,15.51229441,0.0003543,69.9974,237.7615,267.3228,92.7552,1.4723e-05,7e-06,0.0,0 STARLINK-5927,1 55934U 23037W   23184.89244684  .00000700  00000-0  14723-4 0  9992,2 55934  69.9974 237.7615 0003543 267.3228  92.7552 15.51229441 17482,6791.272,92.83,415.544,410.731,0.0
55934.0,STARLINK-5927,PAYLOAD,2023-07-04 11:21:11,15.5097633,0.0003594,69.9975,236.1759,268.1297,91.9477,-0.0005534,-0.00032256,0.0,0 STARLINK-5927,1 55934U 23037W   23185.47304499 -.00032256  00000-0 -55340-3 0  9990,2 55934  69.9975 236.1759 0003594 268.1297  91.9477 15.50976330 17578,6792.011,92.845,416.317,411.435,0.0
55934.0,STARLINK-5927,PAYLOAD,2023-07-04 14:27:08,15.50802321,0.0003392,69.9983,235.8239,267.473,92.6067,-0.00092116,-0.00053112,0.0,0 STARLINK-5927,1 55934U 23037W   23185.60218162 -.00053112  00000-0 -92116-3 0  9992,2 55934  69.9983 235.8239 0003392 267.4730  92.6067 15.50802321 17599,6792.519,92.855,416.688,412.08,0.0
55934.0,STARLINK-5927,PAYLOAD,2023-07-04 20:38:56,15.50587109,0.0002901,69.9976,235.1197,275.9006,84.1849,-0.001342,-0.00076485,0.0,0 STARLINK-5927,1 55934U 23037W   23185.86037800 -.00076485  00000-0 -13420-2 0  9996,2 55934  69.9976 235.1197 0002901 275.9006  84.1849 15.50587109 17635,6793.148,92.868,416.983,413.042,0.0
55934.0,STARLINK-5927,PAYLOAD,2023-07-05 07:32:23,15.48057905,0.0003554,69.997,233.8943,43.3493,316.797,-0.0072426,-0.00363709,0.0,0 STARLINK-5927,1 55934U 23037W   23186.31415749 -.00363709  00000-0 -72426-2 0  9998,2 55934  69.9970 233.8943 0003554  43.3493 316.7970 15.48057905 17705,6800.545,93.02,424.827,419.993,0.0
55934.0,STARLINK-5927,PAYLOAD,2023-07-05 22:00:01,15.4775274,0.0003292,69.9991,232.2396,270.0762,219.9671,-0.017647,-0.00838735,0.0,0 STARLINK-5927,1 55934U 23037W   23186.91668981 -.00838735  00000-0 -17647-1 0  9991,2 55934  69.9991 232.2396 0003292 270.0762 219.9671 15.47752740 17799,6801.439,93.038,425.543,421.065,0.0
55934.0,STARLINK-5927,PAYLOAD,2023-07-06 06:00:00,15.47157622,0.0003337,69.9993,231.3336,269.8941,276.4724,-0.020373,-0.00951539,0.0,0 STARLINK-5927,1 55934U 23037W   23187.25001157 -.00951539  00000-0 -20373-1 0  9993,2 55934  69.9993 231.3336 0003337 269.8941 276.4724 15.47157622 17841,6803.183,93.074,427.318,422.777,0.0
55934.0,STARLINK-5927,PAYLOAD,2023-07-06 22:00:01,15.45795867,0.0003492,69.9991,229.5237,267.941,28.9595,-0.018831,-0.00836533,0.0,0 STARLINK-5927,1 55934U 23037W   23187.91668981 -.00836533  00000-0 -18831-1 0  9992,2 55934  69.9991 229.5237 0003492 267.9410  28.9595 15.45795867 17955,6807.178,93.156,431.42,426.666,0.0
55934.0,STARLINK-5927,PAYLOAD,2023-07-07 06:00:00,15.45204599,0.0003642,69.9995,228.6203,269.6346,81.2429,-0.02196,-0.00958266,0.0,0 STARLINK-5927,1 55934U 23037W   23188.25001157 -.00958266  00000-0 -21960-1 0  9991,2 55934  69.9995 228.6203 0003642 269.6346  81.2429 15.45204599 18008,6808.914,93.192,433.259,428.299,0.0
55934.0,STARLINK-5927,PAYLOAD,2023-07-07 22:00:00,15.43842687,0.0003482,69.9992,226.8157,269.2082,187.4433,-0.020224,-0.00840017,0.0,0 STARLINK-5927,1 55934U 23037W   23188.91667824 -.00840017  00000-0 -20224-1 0  9999,2 55934  69.9992 226.8157 0003482 269.2082 187.4433 15.43842687 18107,6812.918,93.274,437.155,432.41,0.0
55934.0,STARLINK-5927,PAYLOAD,2023-07-08 06:00:00,15.43241293,0.0003492,69.9996,225.9146,270.8768,237.4739,-0.023294,-0.00951297,0.0,0 STARLINK-5927,1 55934U 23037W   23189.25001157 -.00951297  00000-0 -23294-1 0  9991,2 55934  69.9996 225.9146 0003492 270.8768 237.4739 15.43241293 18155,6814.688,93.31,438.932,434.173,0.0
55934.0,STARLINK-5927,PAYLOAD,2023-07-08 22:00:00,15.41883312,0.0003413,69.9996,224.1155,268.4489,340.9819,-0.02155,-0.00848827,0.0,0 STARLINK-5927,1 55934U 23037W   23189.91667824 -.00848827  00000-0 -21550-1 0  9990,2 55934  69.9996 224.1155 0003413 268.4489 340.9819 15.41883312 18265,6818.688,93.392,442.88,438.226,0.0
55934.0,STARLINK-5927,PAYLOAD,2023-07-09 06:00:00,15.41280509,0.0003517,69.9997,223.2174,269.9311,28.8509,-0.024713,-0.00945423,0.0,0 STARLINK-5927,1 55934U 23037W   23190.25001157 -.00945423  00000-0 -24713-1 0  9994,2 55934  69.9997 223.2174 0003517 269.9311  28.8509 15.41280509 18315,6820.466,93.429,444.73,439.932,0.0
55934.0,STARLINK-5927,PAYLOAD,2023-07-09 22:00:00,15.39924103,0.0003441,69.9998,221.4238,267.9581,127.2092,-0.022809,-0.00842252,0.0,0 STARLINK-5927,1 55934U 23037W   23190.91667824 -.00842252  00000-0 -22809-1 0  9996,2 55934  69.9998 221.4238 0003441 267.9581 127.2092 15.39924103 18414,6824.471,93.511,448.684,443.987,0.0
55934.0,STARLINK-5927,PAYLOAD,2023-07-10 06:00:00,15.3932145,0.000342,70.0,220.5285,271.2366,170.9366,-0.026325,-0.00943862,0.0,0 STARLINK-5927,1 55934U 23037W   23191.25001157 -.00943862  00000-0 -26325-1 0  9991,2 55934  70.0000 220.5285 0003420 271.2366 170.9366 15.39321450 18469,6826.252,93.548,450.451,445.782,0.0
55934.0,STARLINK-5927,PAYLOAD,2023-07-10 22:00:00,15.37971616,0.0003227,69.9998,218.7399,267.5305,266.3312,-0.024472,-0.00847109,0.0,0 STARLINK-5927,1 55934U 23037W   23191.91667824 -.00847109  00000-0 -24472-1 0  9991,2 55934  69.9998 218.7399 0003227 267.5305 266.3312 15.37971616 18568,6830.245,93.63,454.314,449.906,0.0
55934.0,STARLINK-5927,PAYLOAD,2023-07-11 06:00:00,15.37354733,0.0003278,70.0002,217.8471,270.2116,308.3143,-0.027499,-0.00926025,0.0,0 STARLINK-5927,1 55934U 23037W   23192.25001157 -.00926025  00000-0 -27499-1 0  9997,2 55934  70.0002 217.8471 0003278 270.2116 308.3143 15.37354733 18626,6832.072,93.667,456.177,451.698,0.0
55934.0,STARLINK-5927,PAYLOAD,2023-07-12 14:00:01,15.34765553,0.0003323,69.9996,214.2842,276.9767,112.4475,-0.030544,-0.00944534,0.0,0 STARLINK-5927,1 55934U 23037W   23193.58335648 -.00944534  00000-0 -30544-1 0  9999,2 55934  69.9996 214.2842 0003323 276.9767 112.4475 15.34765553 18821,6839.754,93.825,463.892,459.346,0.0
55934.0,STARLINK-5927,PAYLOAD,2023-07-13 18:00:00,15.32447809,0.000316,69.9993,211.1786,272.4579,76.1413,-0.031229,-0.00900959,0.0,0 STARLINK-5927,1 55934U 23037W   23194.75001157 -.00900959  00000-0 -31229-1 0  9998,2 55934  69.9993 211.1786 0003160 272.4579  76.1413 15.32447809 19000,6846.649,93.967,470.677,466.35,0.0
55934.0,STARLINK-5927,PAYLOAD,2023-07-14 14:00:01,15.30855137,0.0003085,69.9987,208.967,274.7375,347.4244,-0.034903,-0.00965352,0.0,0 STARLINK-5927,1 55934U 23037W   23195.58334491 -.00965352  00000-0 -34903-1 0  9990,2 55934  69.9987 208.9670 0003085 274.7375 347.4244 15.30855137 19139,6851.397,94.065,475.375,471.148,0.0
55934.0,STARLINK-5927,PAYLOAD,2023-07-15 06:00:02,15.29507393,0.0003245,69.9988,207.2018,273.1078,60.4802,-0.033894,-0.00892833,0.0,0 STARLINK-5927,1 55934U 23037W   23196.25002315 -.00892833  00000-0 -33894-1 0  9993,2 55934  69.9988 207.2018 0003245 273.1078  60.4802 15.29507393 19238,6855.421,94.148,479.51,475.061,0.0
